ORBCOMM FM24            
1 25478U 98053D   25270.07106714  .00002045  00000+0  71152-3 0  9992
2 25478  45.0065 145.9403 0003162  18.9955 341.1011 14.38338584412110
ORBCOMM FM25            
1 25479U 98053E   25269.97501033  .00002056  00000+0  71553-3 0  9990
2 25479  45.0054 144.6816 0005402  31.8723 328.2451 14.38306438412396
ORBCOMM FM26            
1 25480U 98053F   25269.98472155  .00001811  00000+0  64829-3 0  9991
2 25480  45.0061 141.8381 0007074  48.6514 311.4941 14.37331054412291
ORBCOMM FM27            
1 25481U 98053G   25270.02992924  .00002171  00000+0  75250-3 0  9990
2 25481  45.0037 144.5858 0001699  25.1133 334.9798 14.38342039412339
ORBCOMM FM28            
1 25482U 98053H   25269.84670543  .00001860  00000+0  64910-3 0  9994
2 25482  45.0049  82.8159 0005070  95.7044 264.4382 14.38498785412990
ORBCOMM FM30            
1 25980U 99065A   25270.24101942  .00001800  00000+0  64231-3 0  9999
2 25980  45.0326 326.5943 0006906 179.8327 180.2525 14.37500001349130
ORBCOMM FM31            
1 25981U 99065B   25270.21883035  .00001686  00000+0  60566-3 0  9996
2 25981  45.0240 320.1659 0005299 209.7756 150.2791 14.37427905348685
ORBCOMM FM32            
1 25982U 99065C   25270.26339425  .00001860  00000+0  67580-3 0  9998
2 25982  45.0170 337.2175 0007525 196.4940 163.5664 14.36485925349278
