<?xml version="1.0" encoding="UTF-8"?>
<ndm xmlns:xsi="http://www.w3.org/2001/XMLSchema-instance" xsi:noNamespaceSchemaLocation="https://sanaregistry.org/r/ndmxml_unqualified/ndmxml-2.0.0-master-2.0.xsd">
<omm id="CCSDS_OMM_VERS" version="2.0">
<header><CREATION_DATE/><ORIGINATOR/></header><body><segment><metadata><OBJECT_NAME>ORBCOMM FM24</OBJECT_NAME><OBJECT_ID>1998-053D</OBJECT_ID><CENTER_NAME>EARTH</CENTER_NAME><REF_FRAME>TEME</REF_FRAME><TIME_SYSTEM>UTC</TIME_SYSTEM><MEAN_ELEMENT_THEORY>SGP4</MEAN_ELEMENT_THEORY></metadata><data><meanElements><EPOCH>2025-09-27T01:42:20.200896</EPOCH><MEAN_MOTION>14.38338584</MEAN_MOTION><ECCENTRICITY>.00031628</ECCENTRICITY><INCLINATION>45.0065</INCLINATION><RA_OF_ASC_NODE>145.9403</RA_OF_ASC_NODE><ARG_OF_PERICENTER>18.9955</ARG_OF_PERICENTER><MEAN_ANOMALY>341.1011</MEAN_ANOMALY></meanElements><tleParameters><EPHEMERIS_TYPE>0</EPHEMERIS_TYPE><CLASSIFICATION_TYPE>U</CLASSIFICATION_TYPE><NORAD_CAT_ID>25478</NORAD_CAT_ID><ELEMENT_SET_NO>999</ELEMENT_SET_NO><REV_AT_EPOCH>41211</REV_AT_EPOCH><BSTAR>.71152272E-3</BSTAR><MEAN_MOTION_DOT>.2045E-4</MEAN_MOTION_DOT><MEAN_MOTION_DDOT>0</MEAN_MOTION_DDOT></tleParameters></data></segment></body></omm>
<omm id="CCSDS_OMM_VERS" version="2.0">
<header><CREATION_DATE/><ORIGINATOR/></header><body><segment><metadata><OBJECT_NAME>ORBCOMM FM25</OBJECT_NAME><OBJECT_ID>1998-053E</OBJECT_ID><CENTER_NAME>EARTH</CENTER_NAME><REF_FRAME>TEME</REF_FRAME><TIME_SYSTEM>UTC</TIME_SYSTEM><MEAN_ELEMENT_THEORY>SGP4</MEAN_ELEMENT_THEORY></metadata><data><meanElements><EPOCH>2025-09-26T23:24:00.892512</EPOCH><MEAN_MOTION>14.38306438</MEAN_MOTION><ECCENTRICITY>.00054029</ECCENTRICITY><INCLINATION>45.0054</INCLINATION><RA_OF_ASC_NODE>144.6816</RA_OF_ASC_NODE><ARG_OF_PERICENTER>31.8723</ARG_OF_PERICENTER><MEAN_ANOMALY>328.2451</MEAN_ANOMALY></meanElements><tleParameters><EPHEMERIS_TYPE>0</EPHEMERIS_TYPE><CLASSIFICATION_TYPE>U</CLASSIFICATION_TYPE><NORAD_CAT_ID>25479</NORAD_CAT_ID><ELEMENT_SET_NO>999</ELEMENT_SET_NO><REV_AT_EPOCH>41239</REV_AT_EPOCH><BSTAR>.7155269E-3</BSTAR><MEAN_MOTION_DOT>.2056E-4</MEAN_MOTION_DOT><MEAN_MOTION_DDOT>0</MEAN_MOTION_DDOT></tleParameters></data></segment></body></omm>
<omm id="CCSDS_OMM_VERS" version="2.0">
<header><CREATION_DATE/><ORIGINATOR/></header><body><segment><metadata><OBJECT_NAME>ORBCOMM FM26</OBJECT_NAME><OBJECT_ID>1998-053F</OBJECT_ID><CENTER_NAME>EARTH</CENTER_NAME><REF_FRAME>TEME</REF_FRAME><TIME_SYSTEM>UTC</TIME_SYSTEM><MEAN_ELEMENT_THEORY>SGP4</MEAN_ELEMENT_THEORY></metadata><data><meanElements><EPOCH>2025-09-26T23:37:59.941920</EPOCH><MEAN_MOTION>14.37331054</MEAN_MOTION><ECCENTRICITY>.0007074</ECCENTRICITY><INCLINATION>45.0061</INCLINATION><RA_OF_ASC_NODE>141.8381</RA_OF_ASC_NODE><ARG_OF_PERICENTER>48.6514</ARG_OF_PERICENTER><MEAN_ANOMALY>311.4941</MEAN_ANOMALY></meanElements><tleParameters><EPHEMERIS_TYPE>0</EPHEMERIS_TYPE><CLASSIFICATION_TYPE>U</CLASSIFICATION_TYPE><NORAD_CAT_ID>25480</NORAD_CAT_ID><ELEMENT_SET_NO>999</ELEMENT_SET_NO><REV_AT_EPOCH>41229</REV_AT_EPOCH><BSTAR>.64828608E-3</BSTAR><MEAN_MOTION_DOT>.1811E-4</MEAN_MOTION_DOT><MEAN_MOTION_DDOT>0</MEAN_MOTION_DDOT></tleParameters></data></segment></body></omm>
<omm id="CCSDS_OMM_VERS" version="2.0">
<header><CREATION_DATE/><ORIGINATOR/></header><body><segment><metadata><OBJECT_NAME>ORBCOMM FM27</OBJECT_NAME><OBJECT_ID>1998-053G</OBJECT_ID><CENTER_NAME>EARTH</CENTER_NAME><REF_FRAME>TEME</REF_FRAME><TIME_SYSTEM>UTC</TIME_SYSTEM><MEAN_ELEMENT_THEORY>SGP4</MEAN_ELEMENT_THEORY></metadata><data><meanElements><EPOCH>2025-09-27T00:43:05.886336</EPOCH><MEAN_MOTION>14.38342039</MEAN_MOTION><ECCENTRICITY>.00016997</ECCENTRICITY><INCLINATION>45.0037</INCLINATION><RA_OF_ASC_NODE>144.5858</RA_OF_ASC_NODE><ARG_OF_PERICENTER>25.1133</ARG_OF_PERICENTER><MEAN_ANOMALY>334.9798</MEAN_ANOMALY></meanElements><tleParameters><EPHEMERIS_TYPE>0</EPHEMERIS_TYPE><CLASSIFICATION_TYPE>U</CLASSIFICATION_TYPE><NORAD_CAT_ID>25481</NORAD_CAT_ID><ELEMENT_SET_NO>999</ELEMENT_SET_NO><REV_AT_EPOCH>41233</REV_AT_EPOCH><BSTAR>.75250238E-3</BSTAR><MEAN_MOTION_DOT>.2171E-4</MEAN_MOTION_DOT><MEAN_MOTION_DDOT>0</MEAN_MOTION_DDOT></tleParameters></data></segment></body></omm>
<omm id="CCSDS_OMM_VERS" version="2.0">
<header><CREATION_DATE/><ORIGINATOR/></header><body><segment><metadata><OBJECT_NAME>ORBCOMM FM28</OBJECT_NAME><OBJECT_ID>1998-053H</OBJECT_ID><CENTER_NAME>EARTH</CENTER_NAME><REF_FRAME>TEME</REF_FRAME><TIME_SYSTEM>UTC</TIME_SYSTEM><MEAN_ELEMENT_THEORY>SGP4</MEAN_ELEMENT_THEORY></metadata><data><meanElements><EPOCH>2025-09-26T20:19:15.349152</EPOCH><MEAN_MOTION>14.38498785</MEAN_MOTION><ECCENTRICITY>.00050701</ECCENTRICITY><INCLINATION>45.0049</INCLINATION><RA_OF_ASC_NODE>82.8159</RA_OF_ASC_NODE><ARG_OF_PERICENTER>95.7044</ARG_OF_PERICENTER><MEAN_ANOMALY>264.4382</MEAN_ANOMALY></meanElements><tleParameters><EPHEMERIS_TYPE>0</EPHEMERIS_TYPE><CLASSIFICATION_TYPE>U</CLASSIFICATION_TYPE><NORAD_CAT_ID>25482</NORAD_CAT_ID><ELEMENT_SET_NO>999</ELEMENT_SET_NO><REV_AT_EPOCH>41299</REV_AT_EPOCH><BSTAR>.64910331E-3</BSTAR><MEAN_MOTION_DOT>.186E-4</MEAN_MOTION_DOT><MEAN_MOTION_DDOT>0</MEAN_MOTION_DDOT></tleParameters></data></segment></body></omm>
<omm id="CCSDS_OMM_VERS" version="2.0">
<header><CREATION_DATE/><ORIGINATOR/></header><body><segment><metadata><OBJECT_NAME>ORBCOMM FM30</OBJECT_NAME><OBJECT_ID>1999-065A</OBJECT_ID><CENTER_NAME>EARTH</CENTER_NAME><REF_FRAME>TEME</REF_FRAME><TIME_SYSTEM>UTC</TIME_SYSTEM><MEAN_ELEMENT_THEORY>SGP4</MEAN_ELEMENT_THEORY></metadata><data><meanElements><EPOCH>2025-09-27T05:47:04.077888</EPOCH><MEAN_MOTION>14.37500001</MEAN_MOTION><ECCENTRICITY>.00069068</ECCENTRICITY><INCLINATION>45.0326</INCLINATION><RA_OF_ASC_NODE>326.5943</RA_OF_ASC_NODE><ARG_OF_PERICENTER>179.8327</ARG_OF_PERICENTER><MEAN_ANOMALY>180.2525</MEAN_ANOMALY></meanElements><tleParameters><EPHEMERIS_TYPE>0</EPHEMERIS_TYPE><CLASSIFICATION_TYPE>U</CLASSIFICATION_TYPE><NORAD_CAT_ID>25980</NORAD_CAT_ID><ELEMENT_SET_NO>999</ELEMENT_SET_NO><REV_AT_EPOCH>34913</REV_AT_EPOCH><BSTAR>.64231437E-3</BSTAR><MEAN_MOTION_DOT>.18E-4</MEAN_MOTION_DOT><MEAN_MOTION_DDOT>0</MEAN_MOTION_DDOT></tleParameters></data></segment></body></omm>
<omm id="CCSDS_OMM_VERS" version="2.0">
<header><CREATION_DATE/><ORIGINATOR/></header><body><segment><metadata><OBJECT_NAME>ORBCOMM FM31</OBJECT_NAME><OBJECT_ID>1999-065B</OBJECT_ID><CENTER_NAME>EARTH</CENTER_NAME><REF_FRAME>TEME</REF_FRAME><TIME_SYSTEM>UTC</TIME_SYSTEM><MEAN_ELEMENT_THEORY>SGP4</MEAN_ELEMENT_THEORY></metadata><data><meanElements><EPOCH>2025-09-27T05:15:06.942240</EPOCH><MEAN_MOTION>14.37427905</MEAN_MOTION><ECCENTRICITY>.00052997</ECCENTRICITY><INCLINATION>45.0240</INCLINATION><RA_OF_ASC_NODE>320.1659</RA_OF_ASC_NODE><ARG_OF_PERICENTER>209.7756</ARG_OF_PERICENTER><MEAN_ANOMALY>150.2791</MEAN_ANOMALY></meanElements><tleParameters><EPHEMERIS_TYPE>0</EPHEMERIS_TYPE><CLASSIFICATION_TYPE>U</CLASSIFICATION_TYPE><NORAD_CAT_ID>25981</NORAD_CAT_ID><ELEMENT_SET_NO>999</ELEMENT_SET_NO><REV_AT_EPOCH>34868</REV_AT_EPOCH><BSTAR>.60565647E-3</BSTAR><MEAN_MOTION_DOT>.1686E-4</MEAN_MOTION_DOT><MEAN_MOTION_DDOT>0</MEAN_MOTION_DDOT></tleParameters></data></segment></body></omm>
<omm id="CCSDS_OMM_VERS" version="2.0">
<header><CREATION_DATE/><ORIGINATOR/></header><body><segment><metadata><OBJECT_NAME>ORBCOMM FM32</OBJECT_NAME><OBJECT_ID>1999-065C</OBJECT_ID><CENTER_NAME>EARTH</CENTER_NAME><REF_FRAME>TEME</REF_FRAME><TIME_SYSTEM>UTC</TIME_SYSTEM><MEAN_ELEMENT_THEORY>SGP4</MEAN_ELEMENT_THEORY></metadata><data><meanElements><EPOCH>2025-09-27T06:19:17.263200</EPOCH><MEAN_MOTION>14.36485925</MEAN_MOTION><ECCENTRICITY>.00075256</ECCENTRICITY><INCLINATION>45.0170</INCLINATION><RA_OF_ASC_NODE>337.2175</RA_OF_ASC_NODE><ARG_OF_PERICENTER>196.4940</ARG_OF_PERICENTER><MEAN_ANOMALY>163.5664</MEAN_ANOMALY></meanElements><tleParameters><EPHEMERIS_TYPE>0</EPHEMERIS_TYPE><CLASSIFICATION_TYPE>U</CLASSIFICATION_TYPE><NORAD_CAT_ID>25982</NORAD_CAT_ID><ELEMENT_SET_NO>999</ELEMENT_SET_NO><REV_AT_EPOCH>34927</REV_AT_EPOCH><BSTAR>.67580244E-3</BSTAR><MEAN_MOTION_DOT>.186E-4</MEAN_MOTION_DOT><MEAN_MOTION_DDOT>0</MEAN_MOTION_DDOT></tleParameters></data></segment></body></omm>

</ndm>
